{
  "type": "FeatureCollection",
  "features": [
    {
      "type": "Feature",
      "properties": {
        "norad_id": 31353,
        "name": "FENGYUN 1C DEB",
        "group": "fengyun-1c-debris",
        "lat": 29.24857818915947,
        "lon": 112.49413645395168,
        "alt_km": 884.469450312602,
        "timestamp": "2025-12-27T15:27:11.472674+00:00",
        "meta_object_name": "FENGYUN 1C DEB",
        "meta_object_id": "1999-025BRH",
        "meta_epoch": "2025-12-23T01:36:34.682976",
        "meta_mean_motion": 14.29884822,
        "meta_eccentricity": 0.02291012,
        "meta_inclination": 98.9918,
        "meta_ra_of_asc_node": 282.6778,
        "meta_arg_of_pericenter": 37.6194,
        "meta_mean_anomaly": 324.0767,
        "meta_ephemeris_type": 0,
        "meta_classification_type": "U",
        "meta_norad_cat_id": 31353,
        "meta_element_set_no": 999,
        "meta_rev_at_epoch": 96732,
        "meta_bstar": 0.000644123,
        "meta_mean_motion_dot": 2.152e-05,
        "meta_mean_motion_ddot": 0,
        "tle_line1": "1 31353U 99025BRH 25357.06706809  .00002152  00000+0  64412-3 0  9997",
        "tle_line2": "2 31353  98.9918 282.6778 0229101  37.6194 324.0767 14.29884822967320"
      },
      "geometry": {
        "type": "Point",
        "coordinates": [
          112.49413645395168,
          29.24857818915947
        ]
      }
    },
    {
      "type": "Feature",
      "properties": {
        "norad_id": 31357,
        "name": "FENGYUN 1C DEB",
        "group": "fengyun-1c-debris",
        "lat": 7.430306944783514,
        "lon": -146.65851427456965,
        "alt_km": 823.7837908686433,
        "timestamp": "2025-12-27T15:27:11.472685+00:00",
        "meta_object_name": "FENGYUN 1C DEB",
        "meta_object_id": "1999-025BRM",
        "meta_epoch": "2025-12-27T07:55:44.661792",
        "meta_mean_motion": 14.18529526,
        "meta_eccentricity": 0.00488588,
        "meta_inclination": 98.6095,
        "meta_ra_of_asc_node": 31.9051,
        "meta_arg_of_pericenter": 249.6761,
        "meta_mean_anomaly": 123.1637,
        "meta_ephemeris_type": 0,
        "meta_classification_type": "U",
        "meta_norad_cat_id": 31357,
        "meta_element_set_no": 999,
        "meta_rev_at_epoch": 96911,
        "meta_bstar": 4.6791432e-05,
        "meta_mean_motion_dot": 5.5e-07,
        "meta_mean_motion_ddot": 0,
        "tle_line1": "1 31357U 99025BRM 25361.33037803  .00000055  00000+0  46791-4 0  9998",
        "tle_line2": "2 31357  98.6095  31.9051 0048858 249.6761 123.1637 14.18529526969117"
      },
      "geometry": {
        "type": "Point",
        "coordinates": [
          -146.65851427456965,
          7.430306944783514
        ]
      }
    },
    {
      "type": "Feature",
      "properties": {
        "norad_id": 31358,
        "name": "FENGYUN 1C DEB",
        "group": "fengyun-1c-debris",
        "lat": 13.36765486920796,
        "lon": 119.5635597690443,
        "alt_km": 499.0401438749341,
        "timestamp": "2025-12-27T15:27:11.472695+00:00",
        "meta_object_name": "FENGYUN 1C DEB",
        "meta_object_id": "1999-025BRN",
        "meta_epoch": "2025-12-24T18:55:57.832320",
        "meta_mean_motion": 15.22563646,
        "meta_eccentricity": 0.00436516,
        "meta_inclination": 98.9084,
        "meta_ra_of_asc_node": 294.0441,
        "meta_arg_of_pericenter": 79.5177,
        "meta_mean_anomaly": 281.0969,
        "meta_ephemeris_type": 0,
        "meta_classification_type": "U",
        "meta_norad_cat_id": 31358,
        "meta_element_set_no": 999,
        "meta_rev_at_epoch": 97753,
        "meta_bstar": 0.0082771119,
        "meta_mean_motion_dot": 0.00202216,
        "meta_mean_motion_ddot": 0,
        "tle_line1": "1 31358U 99025BRN 25358.78886380  .00202216  00000+0  82771-2 0  9995",
        "tle_line2": "2 31358  98.9084 294.0441 0043651  79.5177 281.0969 15.22563646977535"
      },
      "geometry": {
        "type": "Point",
        "coordinates": [
          119.5635597690443,
          13.36765486920796
        ]
      }
    },
    {
      "type": "Feature",
      "properties": {
        "norad_id": 31361,
        "name": "FENGYUN 1C DEB",
        "group": "fengyun-1c-debris",
        "lat": -80.37415083531702,
        "lon": 38.93140436627476,
        "alt_km": 853.5976252982155,
        "timestamp": "2025-12-27T15:27:11.472705+00:00",
        "meta_object_name": "FENGYUN 1C DEB",
        "meta_object_id": "1999-025BRR",
        "meta_epoch": "2025-12-26T09:22:02.656128",
        "meta_mean_motion": 14.17752908,
        "meta_eccentricity": 0.0045727,
        "meta_inclination": 98.5524,
        "meta_ra_of_asc_node": 335.1926,
        "meta_arg_of_pericenter": 32.0789,
        "meta_mean_anomaly": 328.3155,
        "meta_ephemeris_type": 0,
        "meta_classification_type": "U",
        "meta_norad_cat_id": 31361,
        "meta_element_set_no": 999,
        "meta_rev_at_epoch": 96757,
        "meta_bstar": 0.00015005,
        "meta_mean_motion_dot": 2.67e-06,
        "meta_mean_motion_ddot": 0,
        "tle_line1": "1 31361U 99025BRR 25360.39030852  .00000267  00000+0  15005-3 0  9993",
        "tle_line2": "2 31361  98.5524 335.1926 0045727  32.0789 328.3155 14.17752908967577"
      },
      "geometry": {
        "type": "Point",
        "coordinates": [
          38.93140436627476,
          -80.37415083531702
        ]
      }
    },
    {
      "type": "Feature",
      "properties": {
        "norad_id": 31362,
        "name": "FENGYUN 1C DEB",
        "group": "fengyun-1c-debris",
        "lat": -52.17615929722045,
        "lon": 164.2873078801706,
        "alt_km": 854.9292698541531,
        "timestamp": "2025-12-27T15:27:11.472715+00:00",
        "meta_object_name": "FENGYUN 1C DEB",
        "meta_object_id": "1999-025BRS",
        "meta_epoch": "2025-12-25T20:00:11.166048",
        "meta_mean_motion": 14.1738766,
        "meta_eccentricity": 0.00191533,
        "meta_inclination": 98.6532,
        "meta_ra_of_asc_node": 353.8369,
        "meta_arg_of_pericenter": 59.9167,
        "meta_mean_anomaly": 300.3904,
        "meta_ephemeris_type": 0,
        "meta_classification_type": "U",
        "meta_norad_cat_id": 31362,
        "meta_element_set_no": 999,
        "meta_rev_at_epoch": 96761,
        "meta_bstar": 0.00016907424,
        "meta_mean_motion_dot": 3e-06,
        "meta_mean_motion_ddot": 0,
        "tle_line1": "1 31362U 99025BRS 25359.83346257  .00000300  00000+0  16907-3 0  9990",
        "tle_line2": "2 31362  98.6532 353.8369 0019153  59.9167 300.3904 14.17387660967614"
      },
      "geometry": {
        "type": "Point",
        "coordinates": [
          164.2873078801706,
          -52.17615929722045
        ]
      }
    },
    {
      "type": "Feature",
      "properties": {
        "norad_id": 31364,
        "name": "FENGYUN 1C DEB",
        "group": "fengyun-1c-debris",
        "lat": 66.30501883439996,
        "lon": -36.32549420260882,
        "alt_km": 770.1560045963579,
        "timestamp": "2025-12-27T15:27:11.472726+00:00",
        "meta_object_name": "FENGYUN 1C DEB",
        "meta_object_id": "1999-025BRU",
        "meta_epoch": "2025-12-27T01:21:11.644992",
        "meta_mean_motion": 14.14807312,
        "meta_eccentricity": 0.00920412,
        "meta_inclination": 99.2619,
        "meta_ra_of_asc_node": 121.2375,
        "meta_arg_of_pericenter": 109.0199,
        "meta_mean_anomaly": 252.0972,
        "meta_ephemeris_type": 0,
        "meta_classification_type": "U",
        "meta_norad_cat_id": 31364,
        "meta_element_set_no": 999,
        "meta_rev_at_epoch": 95079,
        "meta_bstar": 0.0031924733,
        "meta_mean_motion_dot": 6.372e-05,
        "meta_mean_motion_ddot": 0,
        "tle_line1": "1 31364U 99025BRU 25361.05638478  .00006372  00000+0  31925-2 0  9999",
        "tle_line2": "2 31364  99.2619 121.2375 0092041 109.0199 252.0972 14.14807312950799"
      },
      "geometry": {
        "type": "Point",
        "coordinates": [
          -36.32549420260882,
          66.30501883439996
        ]
      }
    },
    {
      "type": "Feature",
      "properties": {
        "norad_id": 31365,
        "name": "FENGYUN 1C DEB",
        "group": "fengyun-1c-debris",
        "lat": 72.7810687643236,
        "lon": 57.426041028130804,
        "alt_km": 750.8270663539852,
        "timestamp": "2025-12-27T15:27:11.472736+00:00",
        "meta_object_name": "FENGYUN 1C DEB",
        "meta_object_id": "1999-025BRV",
        "meta_epoch": "2025-12-27T05:06:45.282240",
        "meta_mean_motion": 14.42033044,
        "meta_eccentricity": 0.00427609,
        "meta_inclination": 98.6725,
        "meta_ra_of_asc_node": 86.4928,
        "meta_arg_of_pericenter": 178.1118,
        "meta_mean_anomaly": 182.024,
        "meta_ephemeris_type": 0,
        "meta_classification_type": "U",
        "meta_norad_cat_id": 31365,
        "meta_element_set_no": 999,
        "meta_rev_at_epoch": 96837,
        "meta_bstar": 0.0022869683,
        "meta_mean_motion_dot": 7.552e-05,
        "meta_mean_motion_ddot": 0,
        "tle_line1": "1 31365U 99025BRV 25361.21302410  .00007552  00000+0  22870-2 0  9992",
        "tle_line2": "2 31365  98.6725  86.4928 0042760 178.1118 182.0240 14.42033044968375"
      },
      "geometry": {
        "type": "Point",
        "coordinates": [
          57.426041028130804,
          72.7810687643236
        ]
      }
    }
  ]
}